QZS-1R                  
1 49336U 21096A   23281.51256110 -.00000230  00000+0  00000+0 0  9994
2 49336  35.4241  94.3893 0745643 269.9180 332.0194  1.00281594  7151
